[{"OBJECT_NAME":"STARLINK-3330","OBJECT_ID":"2022-001AK","EPOCH":"2026-03-09T14:50:04.034400","MEAN_MOTION":15.08839591,"ECCENTRICITY":8.85e-5,"INCLINATION":53.2181,"RA_OF_ASC_NODE":179.2216,"ARG_OF_PERICENTER":80.3786,"MEAN_ANOMALY":279.7306,"EPHEMERIS_TYPE":0,"CLASSIFICATION_TYPE":"U","NORAD_CAT_ID":50836,"ELEMENT_SET_NO":999,"REV_AT_EPOCH":23015,"BSTAR":5.6625e-5,"MEAN_MOTION_DOT":6.14e-6,"MEAN_MOTION_DDOT":0},{"OBJECT_NAME":"AAC-HSI-SAT1","OBJECT_ID":"2023-054AZ","EPOCH":"2026-03-09T21:58:39.446112","MEAN_MOTION":15.121108,"ECCENTRICITY":0.00115868,"INCLINATION":97.3836,"RA_OF_ASC_NODE":308.6521,"ARG_OF_PERICENTER":105.3166,"MEAN_ANOMALY":254.9346,"EPHEMERIS_TYPE":0,"CLASSIFICATION_TYPE":"U","NORAD_CAT_ID":56225,"ELEMENT_SET_NO":999,"REV_AT_EPOCH":16036,"BSTAR":0.00016323049,"MEAN_MOTION_DOT":2.752e-5,"MEAN_MOTION_DDOT":0}]
